[{"OBJECT_NAME":"KUIPER-00102","OBJECT_ID":"2025-171J","EPOCH":"2026-03-04T18:04:21.226080","MEAN_MOTION":14.7998599,"ECCENTRICITY":5.91e-5,"INCLINATION":51.8988,"RA_OF_ASC_NODE":174.9075,"ARG_OF_PERICENTER":86.0494,"MEAN_ANOMALY":274.0535,"EPHEMERIS_TYPE":0,"CLASSIFICATION_TYPE":"U","NORAD_CAT_ID":65140,"ELEMENT_SET_NO":999,"REV_AT_EPOCH":3222,"BSTAR":0.0010707,"MEAN_MOTION_DOT":7.961e-5,"MEAN_MOTION_DDOT":0},{"OBJECT_NAME":"KUIPER-00103","OBJECT_ID":"2025-171K","EPOCH":"2026-03-04T18:25:52.929408","MEAN_MOTION":14.79997848,"ECCENTRICITY":0.0002054,"INCLINATION":51.8992,"RA_OF_ASC_NODE":192.3337,"ARG_OF_PERICENTER":126.4532,"MEAN_ANOMALY":233.662,"EPHEMERIS_TYPE":0,"CLASSIFICATION_TYPE":"U","NORAD_CAT_ID":65141,"ELEMENT_SET_NO":999,"REV_AT_EPOCH":3198,"BSTAR":0.00096534,"MEAN_MOTION_DOT":7.157e-5,"MEAN_MOTION_DDOT":0},{"OBJECT_NAME":"KUIPER-00104","OBJECT_ID":"2025-171L","EPOCH":"2026-03-05T01:14:11.404032","MEAN_MOTION":14.79905058,"ECCENTRICITY":6.84e-5,"INCLINATION":51.9023,"RA_OF_ASC_NODE":178.5415,"ARG_OF_PERICENTER":61.043,"MEAN_ANOMALY":299.0601,"EPHEMERIS_TYPE":0,"CLASSIFICATION_TYPE":"U","NORAD_CAT_ID":65142,"ELEMENT_SET_NO":999,"REV_AT_EPOCH":3220,"BSTAR":0.00095552,"MEAN_MOTION_DOT":7.066e-5,"MEAN_MOTION_DDOT":0},{"OBJECT_NAME":"KUIPER-00105","OBJECT_ID":"2025-171M","EPOCH":"2026-03-05T01:50:48.672672","MEAN_MOTION":14.79837621,"ECCENTRICITY":0.0001269,"INCLINATION":51.8997,"RA_OF_ASC_NODE":186.0469,"ARG_OF_PERICENTER":94.1144,"MEAN_ANOMALY":265.9964,"EPHEMERIS_TYPE":0,"CLASSIFICATION_TYPE":"U","NORAD_CAT_ID":65143,"ELEMENT_SET_NO":999,"REV_AT_EPOCH":3210,"BSTAR":-0.00028849,"MEAN_MOTION_DOT":-2.415e-5,"MEAN_MOTION_DDOT":0},{"OBJECT_NAME":"KUIPER-00106","OBJECT_ID":"2025-171N","EPOCH":"2026-03-04T12:05:12.407712","MEAN_MOTION":14.97149195,"ECCENTRICITY":0.0007926,"INCLINATION":51.894,"RA_OF_ASC_NODE":178.5372,"ARG_OF_PERICENTER":83.1033,"MEAN_ANOMALY":277.0838,"EPHEMERIS_TYPE":0,"CLASSIFICATION_TYPE":"U","NORAD_CAT_ID":65144,"ELEMENT_SET_NO":999,"REV_AT_EPOCH":3216,"BSTAR":0.00092140047,"MEAN_MOTION_DOT":0.0001052,"MEAN_MOTION_DDOT":0},{"OBJECT_NAME":"KUIPER-00107","OBJECT_ID":"2025-171P","EPOCH":"2026-03-04T11:43:20.875584","MEAN_MOTION":14.79988999,"ECCENTRICITY":3.289e-5,"INCLINATION":51.8998,"RA_OF_ASC_NODE":171.0921,"ARG_OF_PERICENTER":33.6691,"MEAN_ANOMALY":326.4292,"EPHEMERIS_TYPE":0,"CLASSIFICATION_TYPE":"U","NORAD_CAT_ID":65145,"ELEMENT_SET_NO":999,"REV_AT_EPOCH":3226,"BSTAR":0.0012206574,"MEAN_MOTION_DOT":9.109e-5,"MEAN_MOTION_DDOT":0},{"OBJECT_NAME":"KUIPER-00108","OBJECT_ID":"2025-171Q","EPOCH":"2026-03-05T01:10:24.638592","MEAN_MOTION":14.79940842,"ECCENTRICITY":0.0001154,"INCLINATION":51.9071,"RA_OF_ASC_NODE":181.1289,"ARG_OF_PERICENTER":159.7424,"MEAN_ANOMALY":200.3585,"EPHEMERIS_TYPE":0,"CLASSIFICATION_TYPE":"U","NORAD_CAT_ID":65146,"ELEMENT_SET_NO":999,"REV_AT_EPOCH":3217,"BSTAR":0.00031127,"MEAN_MOTION_DOT":2.153e-5,"MEAN_MOTION_DDOT":0},{"OBJECT_NAME":"KUIPER-00109","OBJECT_ID":"2025-171R","EPOCH":"2026-03-04T11:31:35.820480","MEAN_MOTION":14.79943613,"ECCENTRICITY":5.632e-5,"INCLINATION":51.9019,"RA_OF_ASC_NODE":178.5855,"ARG_OF_PERICENTER":88.7728,"MEAN_ANOMALY":271.3299,"EPHEMERIS_TYPE":0,"CLASSIFICATION_TYPE":"U","NORAD_CAT_ID":65147,"ELEMENT_SET_NO":999,"REV_AT_EPOCH":3215,"BSTAR":0.00067643217,"MEAN_MOTION_DOT":4.941e-5,"MEAN_MOTION_DDOT":0},{"OBJECT_NAME":"KUIPER-00110","OBJECT_ID":"2025-171S","EPOCH":"2026-03-05T01:00:19.226880","MEAN_MOTION":14.79926661,"ECCENTRICITY":0.0001803,"INCLINATION":51.9,"RA_OF_ASC_NODE":188.7005,"ARG_OF_PERICENTER":175.9858,"MEAN_ANOMALY":184.1119,"EPHEMERIS_TYPE":0,"CLASSIFICATION_TYPE":"U","NORAD_CAT_ID":65148,"ELEMENT_SET_NO":999,"REV_AT_EPOCH":3205,"BSTAR":0.00093334,"MEAN_MOTION_DOT":6.9e-5,"MEAN_MOTION_DDOT":0},{"OBJECT_NAME":"KUIPER-00111","OBJECT_ID":"2025-171T","EPOCH":"2026-03-04T17:33:07.001856","MEAN_MOTION":14.80014532,"ECCENTRICITY":0.0001842,"INCLINATION":51.8983,"RA_OF_ASC_NODE":194.9729,"ARG_OF_PERICENTER":138.4936,"MEAN_ANOMALY":221.6167,"EPHEMERIS_TYPE":0,"CLASSIFICATION_TYPE":"U","NORAD_CAT_ID":65149,"ELEMENT_SET_NO":999,"REV_AT_EPOCH":3194,"BSTAR":0.0010098,"MEAN_MOTION_DOT":7.5e-5,"MEAN_MOTION_DDOT":0},{"OBJECT_NAME":"KUIPER-00112","OBJECT_ID":"2025-171U","EPOCH":"2026-03-04T12:20:18.208032","MEAN_MOTION":14.79987841,"ECCENTRICITY":3.19e-5,"INCLINATION":51.9033,"RA_OF_ASC_NODE":178.4917,"ARG_OF_PERICENTER":100.3946,"MEAN_ANOMALY":259.7052,"EPHEMERIS_TYPE":0,"CLASSIFICATION_TYPE":"U","NORAD_CAT_ID":65150,"ELEMENT_SET_NO":999,"REV_AT_EPOCH":3215,"BSTAR":0.00096025,"MEAN_MOTION_DOT":7.116e-5,"MEAN_MOTION_DDOT":0},{"OBJECT_NAME":"KUIPER-00114","OBJECT_ID":"2025-171V","EPOCH":"2026-03-05T01:35:43.206720","MEAN_MOTION":14.7993824,"ECCENTRICITY":0.0001484,"INCLINATION":51.9012,"RA_OF_ASC_NODE":196.0463,"ARG_OF_PERICENTER":120.8789,"MEAN_ANOMALY":239.2319,"EPHEMERIS_TYPE":0,"CLASSIFICATION_TYPE":"U","NORAD_CAT_ID":65151,"ELEMENT_SET_NO":999,"REV_AT_EPOCH":3195,"BSTAR":-0.00033153,"MEAN_MOTION_DOT":-2.748e-5,"MEAN_MOTION_DDOT":0},{"OBJECT_NAME":"KUIPER-00115","OBJECT_ID":"2025-171W","EPOCH":"2026-03-04T17:40:58.013184","MEAN_MOTION":14.79951477,"ECCENTRICITY":6.34e-5,"INCLINATION":51.8989,"RA_OF_ASC_NODE":189.9899,"ARG_OF_PERICENTER":81.0183,"MEAN_ANOMALY":279.0851,"EPHEMERIS_TYPE":0,"CLASSIFICATION_TYPE":"U","NORAD_CAT_ID":65152,"ELEMENT_SET_NO":999,"REV_AT_EPOCH":3201,"BSTAR":0.00070155,"MEAN_MOTION_DOT":5.133e-5,"MEAN_MOTION_DDOT":0},{"OBJECT_NAME":"KUIPER-00116","OBJECT_ID":"2025-171X","EPOCH":"2026-03-04T18:21:58.896000","MEAN_MOTION":14.79924681,"ECCENTRICITY":0.0001253,"INCLINATION":51.9006,"RA_OF_ASC_NODE":194.9033,"ARG_OF_PERICENTER":133.0383,"MEAN_ANOMALY":227.0684,"EPHEMERIS_TYPE":0,"CLASSIFICATION_TYPE":"U","NORAD_CAT_ID":65153,"ELEMENT_SET_NO":999,"REV_AT_EPOCH":3194,"BSTAR":0.00029845,"MEAN_MOTION_DOT":2.054e-5,"MEAN_MOTION_DDOT":0},{"OBJECT_NAME":"KUIPER-00118","OBJECT_ID":"2025-171Y","EPOCH":"2026-03-04T18:17:50.908992","MEAN_MOTION":14.80008714,"ECCENTRICITY":5.32e-5,"INCLINATION":51.8985,"RA_OF_ASC_NODE":197.3712,"ARG_OF_PERICENTER":64.6445,"MEAN_ANOMALY":295.4572,"EPHEMERIS_TYPE":0,"CLASSIFICATION_TYPE":"U","NORAD_CAT_ID":65154,"ELEMENT_SET_NO":999,"REV_AT_EPOCH":3191,"BSTAR":0.00099038,"MEAN_MOTION_DOT":7.351e-5,"MEAN_MOTION_DDOT":0},{"OBJECT_NAME":"KUIPER-00119","OBJECT_ID":"2025-171Z","EPOCH":"2026-03-04T12:08:34.216512","MEAN_MOTION":14.79977709,"ECCENTRICITY":0.00013537,"INCLINATION":51.9007,"RA_OF_ASC_NODE":186.0919,"ARG_OF_PERICENTER":136.4514,"MEAN_ANOMALY":223.6555,"EPHEMERIS_TYPE":0,"CLASSIFICATION_TYPE":"U","NORAD_CAT_ID":65155,"ELEMENT_SET_NO":999,"REV_AT_EPOCH":3204,"BSTAR":0.0013846864,"MEAN_MOTION_DOT":0.00010362,"MEAN_MOTION_DDOT":0},{"OBJECT_NAME":"KUIPER-00120","OBJECT_ID":"2025-217A","EPOCH":"2026-03-05T04:00:01.999584","MEAN_MOTION":14.80007909,"ECCENTRICITY":4.35e-5,"INCLINATION":51.8975,"RA_OF_ASC_NODE":73.0698,"ARG_OF_PERICENTER":107.9263,"MEAN_ANOMALY":352.394,"EPHEMERIS_TYPE":0,"CLASSIFICATION_TYPE":"U","NORAD_CAT_ID":65762,"ELEMENT_SET_NO":999,"REV_AT_EPOCH":375,"BSTAR":-0.0035047,"MEAN_MOTION_DOT":-0.00026879,"MEAN_MOTION_DDOT":0}]
