KUIPER-00102            
1 65140U 25171J   26063.75302345  .00007961  00000+0  10707-2 0  9997
2 65140  51.8988 174.9075 0000591  86.0494 274.0535 14.79985990 32222
KUIPER-00103            
1 65141U 25171K   26063.76797372  .00007157  00000+0  96534-3 0  9997
2 65141  51.8992 192.3337 0002054 126.4532 233.6620 14.79997848 31984
KUIPER-00104            
1 65142U 25171L   26064.05152088  .00007066  00000+0  95552-3 0  9998
2 65142  51.9023 178.5415 0000684  61.0430 299.0601 14.79905058 32205
KUIPER-00105            
1 65143U 25171M   26064.07695223 -.00002415  00000+0 -28849-3 0  9994
2 65143  51.8997 186.0469 0001269  94.1144 265.9964 14.79837621 32100
KUIPER-00106            
1 65144U 25171N   26063.50361583  .00010520  00000+0  92140-3 0  9990
2 65144  51.8940 178.5372 0007926  83.1033 277.0838 14.97149195 32161
KUIPER-00107            
1 65145U 25171P   26063.48843606  .00009109  00000+0  12207-2 0  9995
2 65145  51.8998 171.0921 0000328  33.6691 326.4292 14.79988999 32269
KUIPER-00108            
1 65146U 25171Q   26064.04889628  .00002153  00000+0  31127-3 0  9998
2 65146  51.9071 181.1289 0001154 159.7424 200.3585 14.79940842 32174
KUIPER-00109            
1 65147U 25171R   26063.48027570  .00004941  00000+0  67643-3 0  9995
2 65147  51.9019 178.5855 0000563  88.7728 271.3299 14.79943613 32154
KUIPER-00110            
1 65148U 25171S   26064.04188920  .00006900  00000+0  93334-3 0  9999
2 65148  51.9000 188.7005 0001803 175.9858 184.1119 14.79926661 32051
KUIPER-00111            
1 65149U 25171T   26063.73133104  .00007500  00000+0  10098-2 0  9991
2 65149  51.8983 194.9729 0001842 138.4936 221.6167 14.80014532 31941
KUIPER-00112            
1 65150U 25171U   26063.51409963  .00007116  00000+0  96025-3 0  9996
2 65150  51.9033 178.4917 0000319 100.3946 259.7052 14.79987841 32152
KUIPER-00114            
1 65151U 25171V   26064.06647230 -.00002748  00000+0 -33153-3 0  9990
2 65151  51.9012 196.0463 0001484 120.8789 239.2319 14.79938240 31953
KUIPER-00115            
1 65152U 25171W   26063.73678256  .00005133  00000+0  70155-3 0  9998
2 65152  51.8989 189.9899 0000634  81.0183 279.0851 14.79951477 32010
KUIPER-00116            
1 65153U 25171X   26063.76526500  .00002054  00000+0  29845-3 0  9995
2 65153  51.9006 194.9033 0001253 133.0383 227.0684 14.79924681 31941
KUIPER-00118            
1 65154U 25171Y   26063.76239478  .00007351  00000+0  99038-3 0  9997
2 65154  51.8985 197.3712 0000532  64.6445 295.4572 14.80008714 31919
KUIPER-00119            
1 65155U 25171Z   26063.50595158  .00010362  00000+0  13847-2 0  9999
2 65155  51.9007 186.0919 0001353 136.4514 223.6555 14.79977709 32043
KUIPER-00120            
1 65762U 25217A   26064.16668981 -.00026879  00000+0 -35047-2 0  9990
2 65762  51.8975  73.0698 0000435 107.9263 352.3940 14.80007909  3755
